STARLINK-1007           
1 44713U 19074A   23263.00529825  .00018036  00000+0  12259-2 0  9995
2 44713  53.0529 274.4385 0001510  86.5508 273.5653 15.06422454213018
STARLINK-1008           
1 44714U 19074B   23263.05046774  .00008373  00000+0  57993-3 0  9996
2 44714  53.0556 274.2315 0001828 124.8219 235.2942 15.06424304213020
STARLINK-1009           
1 44715U 19074C   23263.30479482  .00017205  00000+0  11697-2 0  9995
2 44715  53.0539 273.0944 0001552  85.7389 274.3777 15.06445435213055
STARLINK-1010           
1 44716U 19074D   23263.05784316  .00009974  00000+0  68715-3 0  9991
2 44716  53.0534 274.1995 0001386  87.3318 272.7829 15.06420863213007
STARLINK-1011           
1 44717U 19074E   23263.45409671 -.00000150  00000+0  87971-5 0  9999
2 44717  53.0531 292.4227 0001320  94.2817 265.8323 15.06368818212805
STARLINK-1012           
1 44718U 19074F   23262.76297249  .00017134  00000+0  11660-2 0  9997
2 44718  53.0530 275.5258 0001197  98.6919 261.4206 15.06412183212979
STARLINK-1013           
1 44719U 19074G   23263.30111070  .00010123  00000+0  69694-3 0  9998
2 44719  53.0550 273.1086 0001574  86.1937 273.9232 15.06429122213054
STARLINK-1014           
1 44720U 19074H   23263.31859037  .00013363  00000+0  91342-3 0  9997
2 44720  53.0553 273.0224 0001778 112.9268 247.1909 15.06435795213061
STARLINK-1015           
1 44721U 19074J   23263.04310086  .00010450  00000+0  71907-3 0  9993
2 44721  53.0533 274.2685 0001477  96.2681 263.8476 15.06418010213013
STARLINK-1017           
1 44723U 19074L   23262.46441500  .00008661  00000+0  59949-3 0  9999
2 44723  53.0535 276.8668 0001429  85.1024 275.0128 15.06408425212939
STARLINK-1019           
1 44724U 19074M   23262.75928734  .00015748  00000+0  10734-2 0  9993
2 44724  53.0529 275.5437 0001421  87.8171 272.2981 15.06411899212976
STARLINK-1020           
1 44725U 19074N   23263.09656006  .00008401  00000+0  58222-3 0  9995
2 44725  53.0548 294.0298 0001997  81.4873 278.6343 15.06400148212748
STARLINK-1021           
1 44726U 19074P   23263.08733175  .00018123  00000+0  12317-2 0  9994
2 44726  53.0529 274.0705 0001457  87.9189 272.1967 15.06422028213025
STARLINK-1024           
1 44729U 19074S   23263.08922322  .00045708  00000+0  72321-3 0  9992
2 44729  53.0174 202.9483 0008741  98.1807 262.0193 15.52974329213971
STARLINK-1026           
1 44731U 19074U   23263.38081394  .01881947  22092-2  39702-2 0  9990
2 44731  53.0490 237.2024 0002137 179.9918 180.1112 15.98761351213566
STARLINK-1027           
1 44732U 19074V   23263.35088570 -.00007264  00000+0 -46952-3 0  9992
2 44732  53.0540 292.8872 0001427  81.9064 278.2087 15.06377663212787
STARLINK-1028           
1 44733U 19074W   23263.08364963  .00001585  00000+0  12527-3 0  9995
2 44733  53.0540 274.0873 0001386  90.4021 269.7127 15.06406072213028
STARLINK-1029           
1 44734U 19074X   23263.49649345 -.00004655  00000+0 -29408-3 0  9990
2 44734  53.0536 192.2318 0001405  85.5828 274.5321 15.06364413214181
STARLINK-1030           
1 44735U 19074Y   23263.49095285 -.00003816  00000+0 -23755-3 0  9996
2 44735  53.0537 292.2595 0001384 103.3764 256.7379 15.06383340212807
STARLINK-1031           
1 44736U 19074Z   23263.43935264 -.00003187  00000+0 -19516-3 0  9992
2 44736  53.0553 292.4861 0001671 107.9569 252.1602 15.06392034212805
STARLINK-1032           
1 44737U 19074AA  23263.45040934 -.00005534  00000+0 -35309-3 0  9992
2 44737  53.0530 292.4390 0001370  95.0144 265.1001 15.06383698212803
STARLINK-1033           
1 44738U 19074AB  23263.25001157  .00311859  00000+0  10673-2 0  9999
2 44738  53.0432 226.5480 0005830  86.3741 129.3126 15.88354051213692
STARLINK-1035           
1 44740U 19074AD  23263.31402747  .00002461  00000+0  18417-3 0  9990
2 44740  53.0535 293.0499 0001320  82.2704 277.8435 15.06377064212782
STARLINK-1036           
1 44741U 19074AE  23263.45778208  .00009882  00000+0  68197-3 0  9998
2 44741  53.0542 292.4087 0001423  90.1187 269.9965 15.06368392212801
STARLINK-1038           
1 44743U 19074AG  23263.37484935  .00012218  00000+0  83785-3 0  9999
2 44743  53.0539 312.7777 0001522 101.4590 258.6570 15.06392952212519
STARLINK-1039           
1 44744U 19074AH  23263.45225537  .00001336  00000+0  10861-3 0  9994
2 44744  53.0539 312.4325 0001323  83.6617 276.4523 15.06386198212528
STARLINK-1041           
1 44746U 19074AK  23263.37116608  .00006020  00000+0  42298-3 0  9999
2 44746  53.0549 312.7949 0001640 110.3999 249.7166 15.06375452212515
STARLINK-1042           
1 44747U 19074AL  23263.40064871  .00011190  00000+0  76898-3 0  9995
2 44747  53.0540 312.6642 0001472  96.3074 263.8082 15.06396665212520
STARLINK-1043           
1 44748U 19074AM  23263.49648859  .00005582  00000+0  39346-3 0  9994
2 44748  53.0552 312.2309 0001359  84.6596 275.4548 15.06390337212530
STARLINK-1046           
1 44751U 19074AQ  23263.44488333  .00001282  00000+0  10501-3 0  9997
2 44751  53.0539 312.4672 0001469  95.6692 264.4464 15.06381773212523
STARLINK-1047           
1 44752U 19074AR  23263.46515275 -.00003185  00000+0 -19515-3 0  9996
2 44752  53.0540 292.3727 0001399  96.7134 263.4015 15.06377314212806
STARLINK-1048           
1 44753U 19074AS  23263.33796953  .00018020  00000+0  12244-2 0  9990
2 44753  53.0530 272.9459 0001515  88.0452 272.0710 15.06435610213060
STARLINK-1049           
1 44754U 19074AT  23263.25001157  .00263673  00000+0  13319-2 0  9997
2 44754  53.0368 192.7481 0002344 173.9792 227.8104 15.80324344214177
STARLINK-1052           
1 44757U 19074AW  23263.13561525  .00021982  00000+0  14453-2 0  9992
2 44757  53.0537 293.7603 0002269  49.1350 310.9836 15.07529781212755
STARLINK-1053           
1 44758U 19074AX  23263.42646517  .00007668  00000+0  53332-3 0  9995
2 44758  53.0543 312.6336 0001371  86.8450 273.2695 15.06386627212527
STARLINK-1054           
1 44759U 19074AY  23263.40802522  .00009151  00000+0  63264-3 0  9998
2 44759  53.0539 312.6314 0001462  89.7815 270.3341 15.06386589212520
STARLINK-1055           
1 44760U 19074AZ  23263.37421853  .00010798  00000+0  50316-3 0  9993
2 44760  53.0537 297.9259 0001827  77.8134 282.3066 15.20410606212734
STARLINK-1056           
1 44761U 19074BA  23263.40433598  .00016687  00000+0  11373-2 0  9999
2 44761  53.0541 312.6486 0001454  92.7788 267.3367 15.06373701212526
STARLINK-1057           
1 44762U 19074BB  23263.40617708 -.00007206  00000+0 -46559-3 0  9991
2 44762  53.0535 292.6396 0001360  88.6487 271.4658 15.06378912212790
STARLINK-1058           
1 44763U 19074BC  23263.42550905  .00018354  00000+0  12483-2 0  9991
2 44763  53.0546 312.5450 0001459  88.1867 271.9289 15.06386062212523
STARLINK-1059           
1 44764U 19074BD  23262.73438853  .00018335  00000+0  75500-3 0  9991
2 44764  53.0850 267.3359 0007392  58.3278 301.8439 15.24164261213104
STARLINK-1060           
1 44765U 19074BE  23262.42572708  .00005791  00000+0  40725-3 0  9999
2 44765  53.0533 297.0423 0001522  97.0577 263.0585 15.06407032212641
STARLINK-1061           
1 44766U 19074BF  23263.41908066  .00007047  00000+0  49161-3 0  9999
2 44766  53.0542 312.5818 0001436  87.8623 272.2531 15.06392683212521
STARLINK-1062           
1 44767U 19074BG  23263.41076793  .00015107  00000+0  10300-2 0  9991
2 44767  53.0544 312.6111 0001410  84.6034 275.5116 15.06432501212523
STARLINK-1063           
1 44768U 19074BH  23263.43382436  .00014487  00000+0  98963-3 0  9990
2 44768  53.0555 312.5137 0001500  84.4208 275.6952 15.06394026212522
STARLINK-1067           
1 44771U 19074BL  23263.42276817  .00002584  00000+0  19239-3 0  9992
2 44771  53.0548 312.5642 0001366  89.9831 270.1314 15.06386630212525
STARLINK-1068           
1 44772U 19074BM  23263.34719898 -.00005714  00000+0 -36525-3 0  9992
2 44772  53.0536 292.9045 0001399  92.9334 267.1815 15.06378099212789
STARLINK-1073           
1 44914U 20001A   23263.49648578  .00004537  00000+0  32340-3 0  9995
2 44914  53.0549  72.2301 0001320  91.0880 269.0260 15.06388679204012
STARLINK-1084           
1 44915U 20001B   23263.45962782  .00008712  00000+0  60332-3 0  9999
2 44915  53.0550  72.3980 0001474  67.7778 292.3367 15.06382326204015
STARLINK-1098           
1 44917U 20001D   23263.46331364  .00007839  00000+0  54471-3 0  9994
2 44917  53.0546  72.3806 0001631  56.7522 303.3623 15.06388136204012
STARLINK-1099           
1 44918U 20001E   23263.47711627  .00007214  00000+0  50286-3 0  9997
2 44918  53.0548  72.3477 0001440  65.7845 294.3295 15.06389591204756
STARLINK-1102           
1 44920U 20001G   23262.72782159  .00013321  00000+0  58663-3 0  9998
2 44920  53.0596  55.1519 0002521 247.8435 112.2293 15.22149368204195
STARLINK-1103           
1 44921U 20001H   23262.78045626 -.00002651  00000+0 -15917-3 0  9997
2 44921  53.0545  75.4361 0001285  80.2448 279.8686 15.06397685203889
STARLINK-1104           
1 44922U 20001J   23263.47805832  .00008573  00000+0  59389-3 0  9996
2 44922  53.0550  72.3136 0001470  93.9649 266.1508 15.06390537204019
STARLINK-1106           
1 44923U 20001K   23262.79354212  .00015132  00000+0  71399-3 0  9996
2 44923  53.0562  63.0676 0003352  93.4976 266.6402 15.19664814204089
STARLINK-1111           
1 44924U 20001L   23263.49280588 -.00000273  00000+0  56376-6 0  9991
2 44924  53.0554  72.2698 0001220  84.5075 275.6053 15.06395716204013
STARLINK-1112           
1 44925U 20001M   23263.44119387  .00007754  00000+0  53907-3 0  9999
2 44925  53.0549  72.4854 0001298  79.1595 280.9540 15.06388328204006
STARLINK-1113           
1 44926U 20001N   23262.77403925  .00002581  00000+0  19211-3 0  9992
2 44926  53.0541  75.5623 0001267  75.2788 284.8342 15.06397850204580
STARLINK-1114           
1 44927U 20001P   23263.45225181 -.00000361  00000+0 -53817-5 0  9993
2 44927  53.0545  72.4284 0001181  78.6315 281.4807 15.06383293204015
STARLINK-1119           
